NORAD_CAT_ID,OBJECT_NAME,OBJECT_TYPE,EPOCH,MEAN_MOTION,ECCENTRICITY,INCLINATION,RA_OF_ASC_NODE,ARG_OF_PERICENTER,MEAN_ANOMALY,BSTAR,MEAN_MOTION_DOT,MEAN_MOTION_DDOT,TLE_LINE0,TLE_LINE1,TLE_LINE2,SEMIMAJOR_AXIS,PERIOD,APOGEE,PERIGEE,DECAYED
53731.0,STARLINK-4636,PAYLOAD,2023-03-20 10:14:34,15.08843538,0.000137,53.2166,86.2076,98.7657,261.349,0.00048351,7.416e-05,0.0,0 STARLINK-4636,1 53731U 22107AH  23079.42678976  .00007416  00000-0  48351-3 0  9993,2 53731  53.2166  86.2076 0001370  98.7657 261.3490 15.08843538 30740,6917.87,95.437,540.682,538.787,0.0
53731.0,STARLINK-4636,PAYLOAD,2023-03-21 06:54:35,15.08845838,0.0001387,53.2169,82.3419,100.2069,259.9079,0.00030426,4.558e-05,0.0,0 STARLINK-4636,1 53731U 22107AH  23080.28791040  .00004558  00000-0  30426-3 0  9995,2 53731  53.2169  82.3419 0001387 100.2069 259.9079 15.08845838 30241,6917.863,95.437,540.687,538.768,0.0
53731.0,STARLINK-4636,PAYLOAD,2023-03-21 10:05:21,15.08848009,0.00014,53.217,81.7471,100.9922,259.1227,0.00035746,5.407e-05,0.0,0 STARLINK-4636,1 53731U 22107AH  23080.42038983  .00005407  00000-0  35746-3 0  9995,2 53731  53.2170  81.7471 0001400 100.9922 259.1227 15.08848009 30896,6917.856,95.437,540.689,538.752,0.0
53731.0,STARLINK-4636,PAYLOAD,2023-03-21 11:40:44,15.08851584,0.000142,53.217,81.4496,101.6116,258.5035,0.00043668,6.671e-05,0.0,0 STARLINK-4636,1 53731U 22107AH  23080.48662860  .00006671  00000-0  43668-3 0  9994,2 53731  53.2170  81.4496 0001420 101.6116 258.5035 15.08851584 30909,6917.845,95.437,540.692,538.728,0.0
53731.0,STARLINK-4636,PAYLOAD,2023-03-22 05:09:59,15.08837834,0.0001634,53.2172,78.1779,115.4431,244.673,8.9146e-05,1.131e-05,0.0,0 STARLINK-4636,1 53731U 22107AH  23081.21527403  .00001131  00000-0  89146-4 0  9997,2 53731  53.2172  78.1779 0001634 115.4431 244.6730 15.08837834 30380,6917.887,95.438,540.882,538.622,0.0
53731.0,STARLINK-4636,PAYLOAD,2023-03-22 16:17:41,15.08842654,0.0001302,53.217,76.0978,97.9204,262.1936,0.0003265,4.913e-05,0.0,0 STARLINK-4636,1 53731U 22107AH  23081.67895433  .00004913  00000-0  32650-3 0  9996,2 53731  53.2170  76.0978 0001302  97.9204 262.1936 15.08842654 31087,6917.872,95.437,540.638,538.837,0.0
53731.0,STARLINK-4636,PAYLOAD,2023-03-23 08:11:33,15.088439,0.0001254,53.2173,73.1243,99.869,260.2444,0.00021373,3.116e-05,0.0,0 STARLINK-4636,1 53731U 22107AH  23082.34135424  .00003116  00000-0  21373-3 0  9992,2 53731  53.2173  73.1243 0001254  99.8690 260.2444 15.08843900 30558,6917.868,95.437,540.601,538.866,0.0
53731.0,STARLINK-4636,PAYLOAD,2023-03-23 16:08:28,15.08841409,0.000128,53.217,71.6385,106.1002,254.0131,0.00019104,2.754e-05,0.0,0 STARLINK-4636,1 53731U 22107AH  23082.67255561  .00002754  00000-0  19104-3 0  9999,2 53731  53.2170  71.6385 0001280 106.1002 254.0131 15.08841409 31235,6917.876,95.437,540.627,538.856,0.0
53731.0,STARLINK-4636,PAYLOAD,2023-03-24 04:51:33,15.08883579,0.0001243,53.2169,69.2577,99.4752,260.6381,0.0016471,0.00026054,0.0,0 STARLINK-4636,1 53731U 22107AH  23083.20246913  .00026054  00000-0  16471-2 0  9992,2 53731  53.2169  69.2577 0001243  99.4752 260.6381 15.08883579 30686,6917.747,95.435,540.472,538.752,0.0
53731.0,STARLINK-4636,PAYLOAD,2023-03-24 11:13:05,15.08892958,0.00014,53.2173,68.068,96.1405,263.9747,0.0021145,0.00033574,0.0,0 STARLINK-4636,1 53731U 22107AH  23083.46742244  .00033574  00000-0  21145-2 0  9997,2 53731  53.2173  68.0680 0001400  96.1405 263.9747 15.08892958 31355,6917.719,95.434,540.552,538.615,0.0
53731.0,STARLINK-4636,PAYLOAD,2023-03-24 15:59:15,15.08842824,0.0001201,53.2173,67.1762,88.0141,272.0989,-0.00022765,-3.909e-05,0.0,0 STARLINK-4636,1 53731U 22107AH  23083.66614848 -.00003909  00000-0 -22765-3 0  9998,2 53731  53.2173  67.1762 0001201  88.0141 272.0989 15.08842824 30751,6917.872,95.437,540.568,538.906,0.0
53731.0,STARLINK-4636,PAYLOAD,2023-03-25 11:03:52,15.08858744,0.0001323,53.2168,63.6076,87.547,272.5673,0.0017097,0.00027041,0.0,0 STARLINK-4636,1 53731U 22107AH  23084.46102602  .00027041  00000-0  17097-2 0  9999,2 53731  53.2168  63.6076 0001323  87.5470 272.5673 15.08858744 30874,6917.823,95.436,540.603,538.773,0.0
53731.0,STARLINK-4636,PAYLOAD,2023-03-25 15:50:02,15.08823565,8.58e-05,53.2173,62.7184,66.8913,293.2169,-0.00037552,-6.256e-05,0.0,0 STARLINK-4636,1 53731U 22107AH  23084.65975046 -.00006256  00000-0 -37552-3 0  9996,2 53731  53.2173  62.7184 0000858  66.8913 293.2169 15.08823565 30901,6917.931,95.439,540.389,539.202,0.0
53731.0,STARLINK-4636,PAYLOAD,2023-03-25 22:11:35,15.08828168,0.0001295,53.2176,61.5262,80.9774,279.1365,0.00094139,0.00014721,0.0,0 STARLINK-4636,1 53731U 22107AH  23084.92471724  .00014721  00000-0  94139-3 0  9998,2 53731  53.2176  61.5262 0001295  80.9774 279.1365 15.08828168 31575,6917.917,95.438,540.677,538.886,0.0
53731.0,STARLINK-4636,PAYLOAD,2023-03-26 07:43:54,15.08836825,0.0001375,53.2175,59.7424,75.6249,284.4896,0.0018109,0.00028647,0.0,0 STARLINK-4636,1 53731U 22107AH  23085.32216065  .00028647  00000-0  18109-2 0  9992,2 53731  53.2175  59.7424 0001375  75.6249 284.4896 15.08836825 31005,6917.89,95.438,540.706,538.804,0.0
53731.0,STARLINK-4636,PAYLOAD,2023-03-26 15:40:50,15.08837425,0.0001422,53.2177,58.2556,74.8309,285.284,0.0011172,0.00017536,0.0,0 STARLINK-4636,1 53731U 22107AH  23085.65336329  .00017536  00000-0  11172-2 0  9992,2 53731  53.2177  58.2556 0001422  74.8309 285.2840 15.08837425 31058,6917.888,95.438,540.737,538.77,0.0
53731.0,STARLINK-4636,PAYLOAD,2023-03-27 07:34:41,15.0885542,0.0001523,53.218,55.281,86.0745,274.0422,0.00099965,0.00015664,0.0,0 STARLINK-4636,1 53731U 22107AH  23086.31576106  .00015664  00000-0  99965-3 0  9992,2 53731  53.2180  55.2810 0001523  86.0745 274.0422 15.08855420 31780,6917.833,95.437,540.752,538.645,0.0
53731.0,STARLINK-4636,PAYLOAD,2023-03-27 21:53:09,15.08855675,0.0001511,53.2181,52.6067,91.0931,269.0235,0.00073929,0.00011502,0.0,0 STARLINK-4636,1 53731U 22107AH  23086.91192007  .00011502  00000-0  73929-3 0  9991,2 53731  53.2181  52.6067 0001511  91.0931 269.0235 15.08855675 31245,6917.832,95.437,540.743,538.652,0.0
53731.0,STARLINK-4636,PAYLOAD,2023-03-28 07:25:28,15.08865519,0.0001444,53.2189,50.8229,92.2469,267.8689,0.00092969,0.00014549,0.0,0 STARLINK-4636,1 53731U 22107AH  23087.30935539  .00014549  00000-0  92969-3 0  9999,2 53731  53.2189  50.8229 0001444  92.2469 267.8689 15.08865519 31930,6917.802,95.436,540.666,538.668,0.0
53731.0,STARLINK-4636,PAYLOAD,2023-03-28 21:43:56,15.08857735,0.0001424,53.2181,48.1465,91.5697,268.5458,0.00091876,0.00014371,0.0,0 STARLINK-4636,1 53731U 22107AH  23087.90551721  .00014371  00000-0  91876-3 0  9991,2 53731  53.2181  48.1465 0001424  91.5697 268.5458 15.08857735 32021,6917.826,95.436,540.676,538.706,0.0
53731.0,STARLINK-4636,PAYLOAD,2023-03-28 23:19:19,15.08848597,9.11e-05,53.2184,47.8507,50.2237,309.8835,0.0010766,0.00016892,0.0,0 STARLINK-4636,1 53731U 22107AH  23087.97175908  .00016892  00000-0  10766-2 0  9995,2 53731  53.2184  47.8507 0000911  50.2237 309.8835 15.08848597 31404,6917.854,95.437,540.349,539.089,0.0
53731.0,STARLINK-4636,PAYLOAD,2023-03-29 07:16:15,15.0886698,0.0001309,53.2173,46.363,83.9901,276.124,0.0011082,0.00017406,0.0,0 STARLINK-4636,1 53731U 22107AH  23088.30295340  .00017406  00000-0  11082-2 0  9990,2 53731  53.2173  46.3630 0001309  83.9901 276.1240 15.08866980 32083,6917.798,95.436,540.568,538.757,0.0
53731.0,STARLINK-4636,PAYLOAD,2023-03-30 05:31:39,15.08863193,0.0001307,53.2179,42.2009,106.3267,253.7869,0.0020742,0.00032898,0.0,0 STARLINK-4636,1 53731U 22107AH  23089.23031576  .00032898  00000-0  20742-2 0  9997,2 53731  53.2179  42.2009 0001307 106.3267 253.7869 15.08863193 31593,6917.809,95.436,540.579,538.77,0.0
53731.0,STARLINK-4636,PAYLOAD,2023-03-30 07:07:02,15.08872324,0.00013,53.2176,41.9027,110.8818,249.2314,0.002383,0.00037875,0.0,0 STARLINK-4636,1 53731U 22107AH  23089.29655387  .00037875  00000-0  23830-2 0  9996,2 53731  53.2176  41.9027 0001300 110.8818 249.2314 15.08872324 32234,6917.782,95.436,540.546,538.747,0.0
53731.0,STARLINK-4636,PAYLOAD,2023-03-31 05:22:26,15.08862239,0.0001058,53.2168,37.7394,92.8466,267.2648,0.0020956,0.00033241,0.0,0 STARLINK-4636,1 53731U 22107AH  23090.22391774  .00033241  00000-0  20956-2 0  9997,2 53731  53.2168  37.7394 0001058  92.8466 267.2648 15.08862239 31742,6917.812,95.436,540.409,538.946,0.0
53731.0,STARLINK-4636,PAYLOAD,2023-03-31 21:16:18,15.08846854,0.0001706,53.2163,34.7661,83.3283,276.7904,0.0018192,0.00028789,0.0,0 STARLINK-4636,1 53731U 22107AH  23090.88632311  .00028789  00000-0  18192-2 0  9994,2 53731  53.2163  34.7661 0001706  83.3283 276.7904 15.08846854 31849,6917.859,95.437,540.905,538.544,0.0
53731.0,STARLINK-4636,PAYLOAD,2023-04-01 05:13:14,15.0884487,0.0001228,53.2166,33.2784,77.6917,282.4213,0.0012741,0.0002005,0.0,0 STARLINK-4636,1 53731U 22107AH  23091.21752481  .00020050  00000-0  12741-2 0  9990,2 53731  53.2166  33.2784 0001228  77.6917 282.4213 15.08844870 31899,6917.866,95.437,540.58,538.881,0.0
53731.0,STARLINK-4636,PAYLOAD,2023-04-02 05:04:01,15.08863482,0.0001052,53.2163,28.8176,84.5175,275.5937,0.0015239,0.00024064,0.0,0 STARLINK-4636,1 53731U 22107AH  23092.21112483  .00024064  00000-0  15239-2 0  9997,2 53731  53.2163  28.8176 0001052  84.5175 275.5937 15.08863482 32043,6917.809,95.436,540.401,538.946,0.0
53731.0,STARLINK-4636,PAYLOAD,2023-04-02 19:22:29,15.08849102,0.0001003,53.2171,26.1403,98.1461,261.9645,0.00039473,6.001e-05,0.0,0 STARLINK-4636,1 53731U 22107AH  23092.80728823  .00006001  00000-0  39473-3 0  9991,2 53731  53.2171  26.1403 0001003  98.1461 261.9645 15.08849102 32139,6917.853,95.437,540.411,539.024,0.0
53731.0,STARLINK-4636,PAYLOAD,2023-04-03 04:54:48,15.08856267,0.0001226,53.217,24.3571,74.2211,285.8917,0.0012525,0.00019711,0.0,0 STARLINK-4636,1 53731U 22107AH  23093.20472765  .00019711  00000-0  12525-2 0  9997,2 53731  53.2170  24.3571 0001226  74.2211 285.8917 15.08856267 32822,6917.831,95.437,540.544,538.848,0.0
